OBJECT_NAME,OBJECT_ID,EPOCH,MEAN_MOTION,ECCENTRICITY,INCLINATION,RA_OF_ASC_NODE,ARG_OF_PERICENTER,MEAN_ANOMALY,EPHEMERIS_TYPE,CLASSIFICATION_TYPE,NORAD_CAT_ID,ELEMENT_SET_NO,REV_AT_EPOCH,BSTAR,MEAN_MOTION_DOT,MEAN_MOTION_DDOT
EYESAT A (AO-27),1993-061C,2026-03-01T04:13:38.570304,14.30909702,.00093035,98.7001,127.5792,61.8489,298.3632,0,U,22825,999,69155,.63504831E-4,.122E-5,0
ITAMSAT (IO-26),1993-061D,2026-03-01T04:30:10.456992,14.31333439,.00096347,98.6949,127.4973,46.5481,313.6501,0,U,22826,999,69186,.68070796E-4,.136E-5,0
RADIO ROSTO (RS15),1994-085A,2026-03-01T10:44:19.379328,11.27583699,.0152374,64.8149,117.4643,23.5837,337.1979,0,U,23439,999,28375,.50239E-3,-.25E-6,0
JAS-2 (FO-29),1996-046B,2026-03-01T12:20:26.714976,13.53268308,.035018,98.5394,284.0391,15.9708,345.2148,0,U,24278,999,45860,.1657E-4,-.19E-6,0
FORTE,1997-047A,2026-03-01T00:10:10.073856,14.27892904,.00193454,69.9510,258.3602,62.7297,297.5792,0,U,24920,999,48324,.10675147E-3,.207E-5,0
NOAA 15,1998-030A,2026-03-01T11:53:42.763776,14.27108738,.000925,98.5170,83.9908,306.9811,53.0523,0,U,25338,999,44593,.93793E-4,.186E-5,0
TECHSAT 1B (GO-32),1998-043D,2026-03-01T10:49:49.473984,14.24403395,.0001821,99.0017,50.5226,132.1214,228.0119,0,U,25397,999,43599,.66779E-4,.108E-5,0
ISS (ZARYA),1998-067A,2026-03-01T10:42:24.882912,15.48380101,.0008284,51.6323,113.1104,145.6657,214.4868,0,U,25544,999,55505,.18913E-3,.9769E-4,0
ORSTED,1999-008B,2026-03-01T09:10:59.441088,14.51668401,.013238,96.4805,352.3954,171.6667,188.6776,0,U,25635,999,42632,.14628E-3,.625E-5,0
LANDSAT 7,1999-020A,2026-03-01T12:41:19.425120,14.63809287,.0001763,97.8606,69.0968,86.5142,26.3324,0,U,25682,999,43009,.12954E-3,.631E-5,0
ORBCOMM FM36,1999-065E,2026-02-28T17:48:45.620352,14.38954914,.00020194,45.0396,314.3192,136.9276,223.1732,0,U,25984,999,37136,.43284422E-3,.1204E-4,0
DMSP 5D-3 F15 (USA 147),1999-067A,2026-03-01T12:49:42.634272,14.17516372,.000913,99.0112,97.6773,313.1032,219.8074,0,U,25991,999,35539,.12196E-3,.202E-5,0
OPAL (OO-38),2000-004C,2026-03-01T09:29:02.537664,14.37919703,.003564,100.1890,337.3698,340.9973,18.9876,0,U,26063,999,36779,.92276E-4,.221E-5,0
IMAGE,2000-017A,2026-02-26T23:52:25.757184,1.68665192,.75155432,94.1309,313.8802,300.3972,6.7428,0,U,26113,999,15964,.14476993E-1,.125E-5,0
CLUSTER II-FM7 (SAMBA),2000-041A,2026-03-04T06:04:28.507008,0.44785609,.8908777,148.9920,34.5676,250.6745,359.7226,0,U,26410,999,1983,0,.3639E-4,0
CLUSTER II-FM8 (TANGO),2000-045B,2026-02-18T01:30:32.809536,0.44405995,.88900451,149.0711,33.5376,249.4570,359.4916,0,U,26464,999,1976,0,.4776E-4,0
MEGSAT-1,2000-057B,2026-03-01T09:02:11.962176,15.04756757,.0037694,64.5498,54.4134,295.5206,64.2014,0,U,26546,999,38143,.3841E-3,.5344E-4,0
PHASE 3D (AO-40),2000-072B,2026-02-23T18:24:00.879840,1.25587882,.79445772,9.5930,8.4161,142.8250,315.8247,0,U,26609,999,11608,0,-.401E-5,0
ODIN,2001-007A,2026-03-01T01:22:16.247136,15.57714287,.00038407,97.4095,95.7537,160.7540,199.3862,0,U,26702,999,37249,.59991428E-3,.4454E-3,0
OMNI-M1,2001-026A,2026-02-28T10:19:17.405184,3.92402149,.00177581,44.8779,270.3200,27.8521,332.2839,0,U,26857,999,20130,0,-.4E-7,0
PCSAT (NO-44),2001-043C,2026-03-01T10:56:41.024832,14.31907044,.0007019,67.0510,162.9061,265.3260,94.7041,0,U,26931,999,27502,.10085E-3,.187E-5,0
PROBA-1,2001-049B,2026-03-01T12:34:27.032736,15.06974052,.0057011,97.9626,65.3214,125.6904,234.9648,0,U,26958,999,32740,.27689E-3,.4228E-4,0
SPOT 5,2002-021A,2026-03-01T02:42:15.277248,14.54650184,.01285109,98.0004,103.6970,252.4035,106.3092,0,U,27421,999,24713,.10695039E-3,.46E-5,0
FENGYUN 1D,2002-024B,2026-03-01T02:10:44.889312,14.10207766,.00154129,98.9679,110.8436,183.4619,176.6447,0,U,27431,999,22424,.25398943E-4,0,0
SAUDISAT 1C (SO-50),2002-058C,2026-03-01T10:57:26.169696,14.82743943,.0075059,64.5510,102.2353,282.1563,77.1142,0,U,27607,999,24848,.24292E-3,.191E-4,0
CORIOLIS,2003-001A,2026-03-01T10:55:15.297888,14.19908986,.0014396,98.7160,68.9728,159.2395,200.9368,0,U,27640,999,19893,.10396E-3,.177E-5,0
CUTE-1 (CO-55),2003-031E,2026-02-28T23:50:05.053920,14.24257525,.0010391,98.6778,69.8999,135.3044,224.8974,0,U,27844,999,17627,.1858525E-3,.385E-5,0
CUBESAT XI-IV (CO-57),2003-031J,2026-03-01T11:45:32.453280,14.23554450,.0010013,98.6807,70.1897,150.6547,209.5195,0,U,27848,999,17605,.17102E-3,.346E-5,0
MOZHAETS 4 (RS22),2003-042A,2026-03-01T13:34:23.562336,14.73225149,.0010221,98.3427,241.9009,248.3212,146.0060,0,U,27939,999,19970,.21066E-3,.1307E-4,0
IRS-P6 (RESOURCESAT-1),2003-046A,2026-03-01T12:43:24.650688,14.36112345,.0063196,98.2069,102.2465,306.0791,188.3161,0,U,28051,999,16507,.19781E-3,.548E-5,0
