EYESAT A (AO-27)        
1 22825U 93061C   26060.17614086  .00000122  00000+0  63505-4 0  9992
2 22825  98.7001 127.5792 0009303  61.8489 298.3632 14.30909702691554
ITAMSAT (IO-26)         
1 22826U 93061D   26060.18762103  .00000136  00000+0  68071-4 0  9996
2 22826  98.6949 127.4973 0009634  46.5481 313.6501 14.31333439691863
RADIO ROSTO (RS15)      
1 23439U 94085A   26060.44744652 -.00000025  00000+0  50239-3 0  9996
2 23439  64.8149 117.4643 0152374  23.5837 337.1979 11.27583699283756
JAS-2 (FO-29)           
1 24278U 96046B   26060.51419809 -.00000019  00000+0  16570-4 0  9992
2 24278  98.5394 284.0391 0350180  15.9708 345.2148 13.53268308458606
FORTE                   
1 24920U 97047A   26060.00706104  .00000207  00000+0  10675-3 0  9996
2 24920  69.9510 258.3602 0019345  62.7297 297.5792 14.27892904483248
NOAA 15                 
1 25338U 98030A   26060.49563384  .00000186  00000+0  93793-4 0  9996
2 25338  98.5170  83.9908 0009250 306.9811  53.0523 14.27108738445938
TECHSAT 1B (GO-32)      
1 25397U 98043D   26060.45126706  .00000108  00000+0  66779-4 0  9992
2 25397  99.0017  50.5226 0001821 132.1214 228.0119 14.24403395435998
ISS (ZARYA)             
1 25544U 98067A   26060.44612133  .00009769  00000+0  18913-3 0  9993
2 25544  51.6323 113.1104 0008284 145.6657 214.4868 15.48380101555053
ORSTED                  
1 25635U 99008B   26060.38263242  .00000625  00000+0  14628-3 0  9997
2 25635  96.4805 352.3954 0132380 171.6667 188.6776 14.51668401426323
LANDSAT 7               
1 25682U 99020A   26060.52869705  .00000631  00000+0  12954-3 0  9992
2 25682  97.8606  69.0968 0001763  86.5142  26.3324 14.63809287430096
ORBCOMM FM36            
1 25984U 99065E   26059.74219468  .00001204  00000+0  43284-3 0  9990
2 25984  45.0396 314.3192 0002019 136.9276 223.1732 14.38954914371364
DMSP 5D-3 F15 (USA 147) 
1 25991U 99067A   26060.53452123  .00000202  00000+0  12196-3 0  9991
2 25991  99.0112  97.6773 0009130 313.1032 219.8074 14.17516372355398
OPAL (OO-38)            
1 26063U 00004C   26060.39516826  .00000221  00000+0  92276-4 0  9999
2 26063 100.1890 337.3698 0035640 340.9973  18.9876 14.37919703367795
IMAGE                   
1 26113U 00017A   26057.99474256  .00000125  00000+0  14477-1 0  9998
2 26113  94.1309 313.8802 7515543 300.3972   6.7428  1.68665192159646
CLUSTER II-FM7 (SAMBA)  
1 26410U 00041A   26063.25310772  .00003639  00000+0  00000+0 0  9991
2 26410 148.9920  34.5676 8908777 250.6745 359.7226  0.44785609 19832
CLUSTER II-FM8 (TANGO)  
1 26464U 00045B   26049.06287974  .00004776  00000+0  00000+0 0  9997
2 26464 149.0711  33.5376 8890045 249.4570 359.4916  0.44405995 19769
MEGSAT-1                
1 26546U 00057B   26060.37652734  .00005344  00000+0  38410-3 0  9990
2 26546  64.5498  54.4134 0037694 295.5206  64.2014 15.04756757381433
PHASE 3D (AO-40)        
1 26609U 00072B   26054.76667685 -.00000401  00000+0  00000+0 0  9994
2 26609   9.5930   8.4161 7944577 142.8250 315.8247  1.25587882116088
ODIN                    
1 26702U 01007A   26060.05713249  .00044540  00000+0  59991-3 0  9992
2 26702  97.4095  95.7537 0003840 160.7540 199.3862 15.57714287372497
OMNI-M1                 
1 26857U 01026A   26059.43006256 -.00000004  00000+0  00000+0 0  9998
2 26857  44.8779 270.3200 0017758  27.8521 332.2839  3.92402149201306
PCSAT (NO-44)           
1 26931U 01043C   26060.45603038  .00000187  00000+0  10085-3 0  9994
2 26931  67.0510 162.9061 0007019 265.3260  94.7041 14.31907044275022
PROBA-1                 
1 26958U 01049B   26060.52392399  .00004228  00000+0  27689-3 0  9990
2 26958  97.9626  65.3214 0057011 125.6904 234.9648 15.06974052327404
SPOT 5                  
1 27421U 02021A   26060.11267682  .00000460  00000+0  10695-3 0  9991
2 27421  98.0004 103.6970 0128510 252.4035 106.3092 14.54650184247139
FENGYUN 1D              
1 27431U 02024B   26060.09079733  .00000000  00000+0  25399-4 0  9998
2 27431  98.9679 110.8436 0015412 183.4619 176.6447 14.10207766224248
SAUDISAT 1C (SO-50)     
1 27607U 02058C   26060.45655289  .00001910  00000+0  24292-3 0  9997
2 27607  64.5510 102.2353 0075059 282.1563  77.1142 14.82743943248487
CORIOLIS                
1 27640U 03001A   26060.45503817  .00000177  00000+0  10396-3 0  9996
2 27640  98.7160  68.9728 0014396 159.2395 200.9368 14.19908986198932
CUTE-1 (CO-55)          
1 27844U 03031E   26059.99311405  .00000385  00000+0  18585-3 0  9991
2 27844  98.6778  69.8999 0010391 135.3044 224.8974 14.24257525176272
CUBESAT XI-IV (CO-57)   
1 27848U 03031J   26060.48995895  .00000346  00000+0  17102-3 0  9993
2 27848  98.6807  70.1897 0010013 150.6547 209.5195 14.23554450176057
MOZHAETS 4 (RS22)       
1 27939U 03042A   26060.56555049  .00001307  00000+0  21066-3 0  9990
2 27939  98.3427 241.9009 0010221 248.3212 146.0060 14.73225149199709
IRS-P6 (RESOURCESAT-1)  
1 28051U 03046A   26060.53014642  .00000548  00000+0  19781-3 0  9993
2 28051  98.2069 102.2465 0063196 306.0791 188.3161 14.36112345165070
